ONEWEB-0336             
1 49202U 21083S   26161.47885252 -.00000160  00000+0 -47301-3 0  9994
2 49202  87.8948 321.5640 0002262  94.8662 265.2726 13.13470521230036
ONEWEB-0337             
1 49203U 21083T   26161.48887853  .00000020  00000+0  18893-4 0  9993
2 49203  87.8944 321.5681 0001991  98.4193 261.7162 13.13470756230030
ONEWEB-0338             
1 49204U 21083U   26161.60178732  .00000995  00000+0  24148-2 0  9996
2 49204  87.9179 275.7617 0000856  76.0808 284.0420 13.20768453235947
ONEWEB-0339             
1 49205U 21083V   26161.49747702  .00000266  00000+0  69458-3 0  9998
2 49205  87.8946 321.5588 0001564 100.6395 259.4910 13.13471106230019
ONEWEB-0340             
1 49206U 21083W   26161.53226923  .00000497  00000+0  12282-2 0  9999
2 49206  87.9168 336.7795 0001826  91.5047 268.6294 13.18683116229092
ONEWEB-0341             
1 49207U 21083X   26161.23551036  .00000031  00000+0  45817-4 0  9999
2 49207  87.9161 336.8422 0002131 104.3637 255.7732 13.18685311229073
ONEWEB-0342             
1 49208U 21083Y   26161.60851558  .00000006  00000+0 -17346-4 0  9992
2 49208  87.9191 275.7479 0001866 102.4031 257.7312 13.20771158235915
ONEWEB-0343             
1 49209U 21083Z   26161.24394546  .00000048  00000+0  89717-4 0  9998
2 49209  87.9164 336.8391 0001512 101.1545 258.9757 13.18685942229126
ONEWEB-0344             
1 49210U 21083AA  26161.49239614  .00000132  00000+0  32657-3 0  9995
2 49210  87.8937 321.5747 0002049 104.2317 255.9040 13.13472587230014
ONEWEB-0345             
1 49211U 21083AB  26161.48392792 -.00000060  00000+0 -19868-3 0  9993
2 49211  87.8957 321.5562 0001992 103.7886 256.3465 13.13471133230026
ONEWEB-0346             
1 49212U 21083AC  26161.24056875  .00000019  00000+0  15510-4 0  9990
2 49212  87.9158 336.8404 0002421  83.8068 276.3340 13.18685072229063
ONEWEB-0348             
1 49213U 21083AD  26161.59841193  .00000061  00000+0  11769-3 0  9992
2 49213  87.9194 275.7537 0002484 100.0866 260.0547 13.20770586235940
ONEWEB-0350             
1 49214U 21083AE  26161.49790521  .00000222  00000+0  57741-3 0  9999
2 49214  87.8954 321.5570 0002033 100.4125 259.7233 13.12943659230051
ONEWEB-0351             
1 49215U 21083AF  26161.59153017  .00000072  00000+0  14426-3 0  9990
2 49215  87.9193 275.7537 0001750 127.2260 232.9033 13.20770337235903
ONEWEB-0352             
1 49216U 21083AG  26161.16906617 -.00000324  00000+0 -92324-3 0  9991
2 49216  87.8948 321.6306 0001521 105.5778 254.5519 13.13470549230105
ONEWEB-0354             
1 49217U 21083AH  26161.61862324 -.00000008  00000+0 -51385-4 0  9990
2 49217  87.9189 275.7472 0002353 103.2563 256.8833 13.20772767235944
ONEWEB-0355             
1 49218U 21083AJ  26161.19798816  .00000301  00000+0  78903-3 0  9996
2 49218  87.8943 321.6263 0001794 102.8555 257.2775 13.13469704229988
ONEWEB-0357             
1 49219U 21083AK  26161.61525451  .00000037  00000+0  59644-4 0  9995
2 49219  87.9191 275.7422 0001860 106.1811 253.9527 13.20772302235947
ONEWEB-0332             
1 49279U 21090A   26161.59637522  .00000022  00000+0  25062-4 0  9990
2 49279  87.8959 291.0228 0001659  98.4260 261.7058 13.14502113226711
ONEWEB-0347             
1 49280U 21090B   26161.60514967  .00000022  00000+0  21773-4 0  9996
2 49280  87.9190 275.7523 0001723  97.4625 262.6704 13.20770926230173
ONEWEB-0349             
1 49281U 21090C   26161.56138663  .00000045  00000+0  77809-4 0  9993
2 49281  87.9189 275.7615 0001973 101.5748 258.5607 13.20772361228958
ONEWEB-0353             
1 49282U 21090D   26161.58846405  .00000253  00000+0  64672-3 0  9990
2 49282  87.8962 291.0198 0001641  97.0296 263.1021 13.14502623226712
ONEWEB-0356             
1 49283U 21090E   26161.55970069  .00000063  00000+0  12303-3 0  9995
2 49283  87.9189 275.7552 0002273  80.1821 279.9569 13.20773468228951
ONEWEB-0358             
1 49284U 21090F   26161.58994932 -.00024202  00000+0 -60074-1 0  9993
2 49284  87.9185 275.7539 0002089  97.0913 263.0457 13.20366877229680
ONEWEB-0359             
1 49285U 21090G   26161.58663503  .00000118  00000+0  25758-3 0  9991
2 49285  87.9190 275.7497 0002263 101.7646 258.3741 13.20772892229669
ONEWEB-0360             
1 49286U 21090H   26161.57653764  .00001162  00000+0  28266-2 0  9995
2 49286  87.9188 275.7579 0002103 102.6710 257.4659 13.20767801228978
ONEWEB-0361             
1 49287U 21090J   26161.55800691  .00000051  00000+0  92839-4 0  9992
2 49287  87.9192 275.7600 0002095  99.4074 260.7296 13.20771088229422
ONEWEB-0362             
1 49288U 21090K   26161.65697594  .00000117  00000+0  26021-3 0  9992
2 49288  87.9164 306.2791 0001812 106.2629 253.8703 13.19724432226053
ONEWEB-0363             
1 49289U 21090L   26161.57315376  .00000119  00000+0  26118-3 0  9998
2 49289  87.9193 275.7574 0002120  92.2768 267.8608 13.20770529229430
ONEWEB-0364             
1 49290U 21090M   26161.61188085 -.00000001  00000+0 -33638-4 0  9998
2 49290  87.9187 275.7576 0001979 101.3688 258.7668 13.20771396230576
