OBJECT_NAME,OBJECT_ID,EPOCH,MEAN_MOTION,ECCENTRICITY,INCLINATION,RA_OF_ASC_NODE,ARG_OF_PERICENTER,MEAN_ANOMALY,EPHEMERIS_TYPE,CLASSIFICATION_TYPE,NORAD_CAT_ID,ELEMENT_SET_NO,REV_AT_EPOCH,BSTAR,MEAN_MOTION_DOT,MEAN_MOTION_DDOT
ONEWEB-0336,2021-083S,2026-06-10T11:29:32.857728,13.13470521,.00022626,87.8948,321.5640,94.8662,265.2726,0,U,49202,999,23003,-.47300996E-3,-.16E-5,0
ONEWEB-0337,2021-083T,2026-06-10T11:43:59.104992,13.13470756,.00019913,87.8944,321.5681,98.4193,261.7162,0,U,49203,999,23003,.18893223E-4,.2E-6,0
ONEWEB-0338,2021-083U,2026-06-10T14:26:34.424448,13.20768453,.0000856,87.9179,275.7617,76.0808,284.0420,0,U,49204,999,23594,.24147994E-2,.995E-5,0
ONEWEB-0339,2021-083V,2026-06-10T11:56:22.014528,13.13471106,.00015648,87.8946,321.5588,100.6395,259.4910,0,U,49205,999,23001,.69457578E-3,.266E-5,0
ONEWEB-0340,2021-083W,2026-06-10T12:46:28.061472,13.18683116,.00018265,87.9168,336.7795,91.5047,268.6294,0,U,49206,999,22909,.12281887E-2,.497E-5,0
ONEWEB-0341,2021-083X,2026-06-10T05:39:08.095104,13.18685311,.0002131,87.9161,336.8422,104.3637,255.7732,0,U,49207,999,22907,.45817E-4,.31E-6,0
ONEWEB-0342,2021-083Y,2026-06-10T14:36:15.746112,13.20771158,.00018662,87.9191,275.7479,102.4031,257.7312,0,U,49208,999,23591,-.17345699E-4,.6E-7,0
ONEWEB-0343,2021-083Z,2026-06-10T05:51:16.887744,13.18685942,.0001512,87.9164,336.8391,101.1545,258.9757,0,U,49209,999,22912,.89717E-4,.48E-6,0
ONEWEB-0344,2021-083AA,2026-06-10T11:49:03.026496,13.13472587,.00020495,87.8937,321.5747,104.2317,255.9040,0,U,49210,999,23001,.32656839E-3,.132E-5,0
ONEWEB-0345,2021-083AB,2026-06-10T11:36:51.372288,13.13471133,.00019922,87.8957,321.5562,103.7886,256.3465,0,U,49211,999,23002,-.19867578E-3,-.6E-6,0
ONEWEB-0346,2021-083AC,2026-06-10T05:46:25.140000,13.18685072,.0002421,87.9158,336.8404,83.8068,276.3340,0,U,49212,999,22906,.1551E-4,.19E-6,0
ONEWEB-0348,2021-083AD,2026-06-10T14:21:42.790752,13.20770586,.00024845,87.9194,275.7537,100.0866,260.0547,0,U,49213,999,23594,.11768704E-3,.61E-6,0
ONEWEB-0350,2021-083AE,2026-06-10T11:56:59.010144,13.12943659,.00020334,87.8954,321.5570,100.4125,259.7233,0,U,49214,999,23005,.57740949E-3,.222E-5,0
ONEWEB-0351,2021-083AF,2026-06-10T14:11:48.206688,13.20770337,.00017508,87.9193,275.7537,127.2260,232.9033,0,U,49215,999,23590,.14426242E-3,.72E-6,0
ONEWEB-0352,2021-083AG,2026-06-10T04:03:27.317088,13.13470549,.0001521,87.8948,321.6306,105.5778,254.5519,0,U,49216,999,23010,-.92324E-3,-.324E-5,0
ONEWEB-0354,2021-083AH,2026-06-10T14:50:49.047936,13.20772767,.00023536,87.9189,275.7472,103.2563,256.8833,0,U,49217,999,23594,-.51384775E-4,-.8E-7,0
ONEWEB-0355,2021-083AJ,2026-06-10T04:45:06.177024,13.13469704,.0001794,87.8943,321.6263,102.8555,257.2775,0,U,49218,999,22998,.78903E-3,.301E-5,0
ONEWEB-0357,2021-083AK,2026-06-10T14:45:57.989664,13.20772302,.00018605,87.9191,275.7422,106.1811,253.9527,0,U,49219,999,23594,.59644449E-4,.37E-6,0
ONEWEB-0332,2021-090A,2026-06-10T14:18:46.819008,13.14502113,.00016596,87.8959,291.0228,98.4260,261.7058,0,U,49279,999,22671,.25061769E-4,.22E-6,0
ONEWEB-0347,2021-090B,2026-06-10T14:31:24.931488,13.20770926,.00017237,87.9190,275.7523,97.4625,262.6704,0,U,49280,999,23017,.21773487E-4,.22E-6,0
ONEWEB-0349,2021-090C,2026-06-10T13:28:23.804832,13.20772361,.00019735,87.9189,275.7615,101.5748,258.5607,0,U,49281,999,22895,.77809117E-4,.45E-6,0
ONEWEB-0353,2021-090D,2026-06-10T14:07:23.293920,13.14502623,.00016412,87.8962,291.0198,97.0296,263.1021,0,U,49282,999,22671,.64672003E-3,.253E-5,0
ONEWEB-0356,2021-090E,2026-06-10T13:25:58.139616,13.20773468,.0002273,87.9189,275.7552,80.1821,279.9569,0,U,49283,999,22895,.12303362E-3,.63E-6,0
ONEWEB-0358,2021-090F,2026-06-10T14:09:31.621248,13.20366877,.00020898,87.9185,275.7539,97.0913,263.0457,0,U,49284,999,22968,-.60074063E-1,-.24202E-3,0
ONEWEB-0359,2021-090G,2026-06-10T14:04:45.266592,13.20772892,.00022631,87.9190,275.7497,101.7646,258.3741,0,U,49285,999,22966,.25757842E-3,.118E-5,0
ONEWEB-0360,2021-090H,2026-06-10T13:50:12.852096,13.20767801,.00021031,87.9188,275.7579,102.6710,257.4659,0,U,49286,999,22897,.28265609E-2,.1162E-4,0
ONEWEB-0361,2021-090J,2026-06-10T13:23:31.797024,13.20771088,.00020951,87.9192,275.7600,99.4074,260.7296,0,U,49287,999,22942,.92838599E-4,.51E-6,0
ONEWEB-0362,2021-090K,2026-06-10T15:46:02.721216,13.19724432,.00018129,87.9164,306.2791,106.2629,253.8703,0,U,49288,999,22605,.26021454E-3,.117E-5,0
ONEWEB-0363,2021-090L,2026-06-10T13:45:20.484864,13.20770529,.00021202,87.9193,275.7574,92.2768,267.8608,0,U,49289,999,22943,.26118225E-3,.119E-5,0
ONEWEB-0364,2021-090M,2026-06-10T14:41:06.505440,13.20771396,.00019796,87.9187,275.7576,101.3688,258.7668,0,U,49290,999,23057,-.33638011E-4,-.1E-7,0
